OBJECT_NAME,OBJECT_ID,EPOCH,MEAN_MOTION,ECCENTRICITY,INCLINATION,RA_OF_ASC_NODE,ARG_OF_PERICENTER,MEAN_ANOMALY,EPHEMERIS_TYPE,CLASSIFICATION_TYPE,NORAD_CAT_ID,ELEMENT_SET_NO,REV_AT_EPOCH,BSTAR,MEAN_MOTION_DOT,MEAN_MOTION_DDOT
CUTE-1 (CO-55),2003-031E,2026-07-13T10:48:24.576480,14.24350896,.00108034,98.6742,202.6793,107.1223,253.1140,0,U,27844,999,19541,.8684817E-4,.157E-5,0
CUBESAT XI-IV (CO-57),2003-031J,2026-07-13T12:32:00.136320,14.23634003,.0010486,98.6773,202.4416,123.7879,236.4299,0,U,27848,999,19512,.7551E-4,.129E-5,0
CUBESAT XI-V,2005-043F,2026-07-13T10:12:39.204000,14.72699773,.00151946,98.3010,350.6030,120.4468,239.8242,0,U,28895,999,10561,.12096734E-3,.72E-5,0
CUTE-1.7+APD II (CO-65),2008-021C,2026-07-13T21:29:22.846848,15.09693670,.0007148,97.8288,176.8764,304.7170,55.3385,0,U,32785,999,98922,.20405E-3,.3221E-4,0
CANX-2,2008-021H,2026-07-13T20:53:12.043392,15.05801950,.0008842,97.8656,175.1723,323.2603,36.8016,0,U,32790,999,98882,.13437E-3,.1884E-4,0
SEEDS II (CO-66),2008-021J,2026-07-13T12:03:43.890048,15.33629018,.00028857,97.7522,193.6748,159.9785,200.1570,0,U,32791,999,99132,.32807645E-3,.10586E-3,0
SWISSCUBE,2009-051B,2026-07-13T17:08:24.847008,14.62529232,.0007797,98.4010,103.0624,122.9504,237.2447,0,U,35932,999,89303,.10573E-3,.487E-5,0
BEESAT-1,2009-051C,2026-07-13T17:41:58.432704,14.61760532,.0006039,98.3937,102.6657,133.6539,226.5163,0,U,35933,999,89306,.88826E-4,.394E-5,0
ITUPSAT1,2009-051E,2026-07-13T16:23:43.334016,14.60477451,.0007976,98.4020,101.7741,147.4965,212.6727,0,U,35935,999,89260,.85196E-4,.364E-5,0
TISAT 1,2010-035E,2026-07-13T18:17:32.123904,15.32696096,.0004388,98.0711,143.6911,122.4638,237.7026,0,U,36799,999,87177,.36768E-3,.11528E-3,0
STRAND-1,2013-009E,2026-07-13T17:18:15.840288,14.37178346,.0009339,98.3932,14.3039,145.1718,215.0081,0,U,39090,999,70087,.6033E-4,.137E-5,0
BRITE-AUSTRIA,2013-009F,2026-07-13T17:53:23.004096,14.36552149,.0010683,98.4007,13.5254,154.7974,205.3736,0,U,39091,999,70086,.42755E-4,.83E-6,0
NEE-01 PEGASO,2013-018B,2026-07-13T20:38:01.237056,14.93785263,.0013652,98.1251,339.8978,78.3095,281.9655,0,U,39151,999,71468,.10827E-3,.1088E-4,0
POPACS 2,2013-055E,2026-07-13T04:56:34.842048,14.91964314,.04150914,80.9920,114.4009,110.2648,254.3692,0,U,39269,999,66709,.22645196E-3,.13879E-3,-.912864E-6
POPACS 3,2013-055F,2026-07-13T10:21:38.734848,14.56630802,.05490077,80.9985,200.7186,350.0516,9.0141,0,U,39270,999,64237,.20653332E-3,.8706E-4,0
ZACUBE-1 (TSHEPISOSAT),2013-066B,2026-07-13T20:50:21.221088,15.01325493,.0043946,97.8009,157.3372,159.4655,200.8348,0,U,39417,999,68473,.10671E-3,.1337E-4,0
WNISAT-1,2013-066H,2026-07-13T20:06:17.436384,14.58118158,.0163808,97.7233,342.1067,147.5671,213.5726,0,U,39423,999,67061,.12275E-3,.632E-5,0
TRITON-1,2013-066M,2026-07-13T20:02:07.022400,14.81790736,.0090474,97.8228,104.0337,146.5026,214.1955,0,U,39427,999,67803,.94761E-4,.746E-5,0
GOMX-1,2013-066Q,2026-07-13T19:25:36.252768,14.69541249,.0128418,97.6473,33.5927,352.6714,7.2612,0,U,39430,999,67382,.13575E-3,.861E-5,0
CUBEBUG-2 (LO-74),2013-066AA,2026-07-13T20:32:08.034720,14.93961470,.0055843,97.8911,143.9522,299.8965,59.6713,0,U,39440,999,68097,.18634E-3,.1982E-4,0
NEE-02 KRYSAOR,2013-066AB,2026-07-13T19:04:13.533312,14.86735376,.0065556,97.8897,133.8221,343.8948,16.0182,0,U,39441,999,68015,.13694E-3,.1207E-4,0
FUNCUBE-1 (AO-73),2013-066AE,2026-07-13T10:29:12.641568,15.09805136,.00380208,97.8287,166.4387,113.3139,247.2098,0,U,39444,999,68362,.22112613E-3,.3565E-4,0
UWE-3,2013-066AG,2026-07-13T19:35:44.816352,14.97193233,.0047496,97.8703,151.0751,229.2786,130.4306,0,U,39446,999,68156,.16225E-3,.1855E-4,0
BRITE-CA1 (TORONTO),2014-033L,2026-07-13T21:00:55.135296,14.72721023,.0078341,97.9770,323.3165,190.4879,169.4699,0,U,40020,999,64614,.87417E-4,.531E-5,0
DUCHIFAT-1,2014-033M,2026-07-13T16:55:20.043840,15.70713406,.0002261,98.0429,257.7182,251.1846,108.9169,0,U,40021,999,65990,.69968E-3,.87109E-3,0
NANOSATC-BR1,2014-033Q,2026-07-13T15:50:44.399040,15.32295994,.0005323,98.0712,229.4089,100.8621,259.3218,0,U,40024,999,65803,.32983E-3,.10203E-3,0
QB50P1,2014-033R,2026-07-13T12:13:07.720032,15.18650045,.0010348,98.0963,207.5077,130.1673,230.0467,0,U,40025,999,65702,.23878E-3,.4875E-4,0
QB50P2,2014-033Y,2026-07-13T10:44:25.202688,15.15492857,.00093578,98.0758,192.9699,88.7327,271.4976,0,U,40032,999,65664,.19749502E-3,.3667E-4,0
PERSEUS-M2,2014-033AD,2026-07-13T18:12:35.284608,14.95589491,.0010736,97.9972,145.8428,203.6931,156.3796,0,U,40037,999,65475,.13819E-3,.1474E-4,0
PERSEUS-M1,2014-033AF,2026-07-13T19:06:55.261152,14.95712422,.0010828,97.9652,139.3677,201.1513,158.9261,0,U,40039,999,65461,.12116E-3,.1289E-4,0
